{
  "type": "FeatureCollection",
  "features": [
    {
      "type": "Feature",
      "properties": {
        "norad_id": 30040,
        "name": "FENGYUN 1C DEB",
        "group": "fengyun-1c-debris",
        "lat": 35.76459331721491,
        "lon": 6.585110457994319,
        "alt_km": 774.4395529672156,
        "timestamp": "2025-12-22T14:45:57.675927+00:00",
        "meta_object_name": "FENGYUN 1C DEB",
        "meta_object_id": "1999-025NR",
        "meta_epoch": "2025-12-20T14:41:47.852160",
        "meta_mean_motion": 14.37187191,
        "meta_eccentricity": 0.0032291,
        "meta_inclination": 98.2327,
        "meta_ra_of_asc_node": 10.6541,
        "meta_arg_of_pericenter": 288.7824,
        "meta_mean_anomaly": 190.4247,
        "meta_ephemeris_type": 0,
        "meta_classification_type": "U",
        "meta_norad_cat_id": 30040,
        "meta_element_set_no": 999,
        "meta_rev_at_epoch": 98041,
        "meta_bstar": 0.0010647,
        "meta_mean_motion_dot": 3.146e-05,
        "meta_mean_motion_ddot": 0,
        "tle_line1": "1 30040U 99025NR  25354.61235940  .00003146  00000+0  10647-2 0  9994",
        "tle_line2": "2 30040  98.2327  10.6541 0032291 288.7824 190.4247 14.37187191980414"
      },
      "geometry": {
        "type": "Point",
        "coordinates": [
          6.585110457994319,
          35.76459331721491
        ]
      }
    },
    {
      "type": "Feature",
      "properties": {
        "norad_id": 30041,
        "name": "FENGYUN 1C DEB",
        "group": "fengyun-1c-debris",
        "lat": -28.588566794840187,
        "lon": -81.53715902190048,
        "alt_km": 830.1834951302217,
        "timestamp": "2025-12-22T14:45:57.675938+00:00",
        "meta_object_name": "FENGYUN 1C DEB",
        "meta_object_id": "1999-025NS",
        "meta_epoch": "2025-12-21T19:41:16.073088",
        "meta_mean_motion": 14.13200267,
        "meta_eccentricity": 0.00351461,
        "meta_inclination": 99.467,
        "meta_ra_of_asc_node": 102.8397,
        "meta_arg_of_pericenter": 192.0491,
        "meta_mean_anomaly": 294.7408,
        "meta_ephemeris_type": 0,
        "meta_classification_type": "U",
        "meta_norad_cat_id": 30041,
        "meta_element_set_no": 999,
        "meta_rev_at_epoch": 97415,
        "meta_bstar": 0.00037938154,
        "meta_mean_motion_dot": 6.65e-06,
        "meta_mean_motion_ddot": 0,
        "tle_line1": "1 30041U 99025NS  25355.82032492  .00000665  00000+0  37938-3 0  9992",
        "tle_line2": "2 30041  99.4670 102.8397 0035146 192.0491 294.7408 14.13200267974156"
      },
      "geometry": {
        "type": "Point",
        "coordinates": [
          -81.53715902190048,
          -28.588566794840187
        ]
      }
    },
    {
      "type": "Feature",
      "properties": {
        "norad_id": 30043,
        "name": "FENGYUN 1C DEB",
        "group": "fengyun-1c-debris",
        "lat": -51.942892167327074,
        "lon": -96.78307869560095,
        "alt_km": 948.779628092213,
        "timestamp": "2025-12-22T14:45:57.675949+00:00",
        "meta_object_name": "FENGYUN 1C DEB",
        "meta_object_id": "1999-025NU",
        "meta_epoch": "2025-12-22T05:16:07.735872",
        "meta_mean_motion": 14.23619086,
        "meta_eccentricity": 0.02835079,
        "meta_inclination": 98.6275,
        "meta_ra_of_asc_node": 94.0103,
        "meta_arg_of_pericenter": 103.4721,
        "meta_mean_anomaly": 259.8216,
        "meta_ephemeris_type": 0,
        "meta_classification_type": "U",
        "meta_norad_cat_id": 30043,
        "meta_element_set_no": 999,
        "meta_rev_at_epoch": 97480,
        "meta_bstar": 0.00071213762,
        "meta_mean_motion_dot": 2.413e-05,
        "meta_mean_motion_ddot": 0,
        "tle_line1": "1 30043U 99025NU  25356.21953398  .00002413  00000+0  71214-3 0  9993",
        "tle_line2": "2 30043  98.6275  94.0103 0283507 103.4721 259.8216 14.23619086974800"
      },
      "geometry": {
        "type": "Point",
        "coordinates": [
          -96.78307869560095,
          -51.942892167327074
        ]
      }
    },
    {
      "type": "Feature",
      "properties": {
        "norad_id": 30044,
        "name": "FENGYUN 1C DEB",
        "group": "fengyun-1c-debris",
        "lat": -4.275107299978238,
        "lon": -82.710501034695,
        "alt_km": 770.5309383364292,
        "timestamp": "2025-12-22T14:45:57.675960+00:00",
        "meta_object_name": "FENGYUN 1C DEB",
        "meta_object_id": "1999-025NV",
        "meta_epoch": "2025-12-21T17:16:02.521632",
        "meta_mean_motion": 14.50757296,
        "meta_eccentricity": 0.00800339,
        "meta_inclination": 98.2126,
        "meta_ra_of_asc_node": 275.7967,
        "meta_arg_of_pericenter": 139.3552,
        "meta_mean_anomaly": 221.3654,
        "meta_ephemeris_type": 0,
        "meta_classification_type": "U",
        "meta_norad_cat_id": 30044,
        "meta_element_set_no": 999,
        "meta_rev_at_epoch": 98169,
        "meta_bstar": 0.0011665347,
        "meta_mean_motion_dot": 4.74e-05,
        "meta_mean_motion_ddot": 0,
        "tle_line1": "1 30044U 99025NV  25355.71947363  .00004740  00000+0  11665-2 0  9991",
        "tle_line2": "2 30044  98.2126 275.7967 0080033 139.3552 221.3654 14.50757296981698"
      },
      "geometry": {
        "type": "Point",
        "coordinates": [
          -82.710501034695,
          -4.275107299978238
        ]
      }
    },
    {
      "type": "Feature",
      "properties": {
        "norad_id": 30045,
        "name": "FENGYUN 1C DEB",
        "group": "fengyun-1c-debris",
        "lat": -28.36900532694085,
        "lon": -152.4335222309306,
        "alt_km": 862.2166786485968,
        "timestamp": "2025-12-22T14:45:57.675970+00:00",
        "meta_object_name": "FENGYUN 1C DEB",
        "meta_object_id": "1999-025NW",
        "meta_epoch": "2025-12-21T00:57:52.675200",
        "meta_mean_motion": 14.21668731,
        "meta_eccentricity": 0.00941438,
        "meta_inclination": 99.1779,
        "meta_ra_of_asc_node": 30.9376,
        "meta_arg_of_pericenter": 89.8391,
        "meta_mean_anomaly": 341.2192,
        "meta_ephemeris_type": 0,
        "meta_classification_type": "U",
        "meta_norad_cat_id": 30045,
        "meta_element_set_no": 999,
        "meta_rev_at_epoch": 96806,
        "meta_bstar": 0.0013770719,
        "meta_mean_motion_dot": 3.117e-05,
        "meta_mean_motion_ddot": 0,
        "tle_line1": "1 30045U 99025NW  25355.04019300  .00003117  00000+0  13771-2 0  9996",
        "tle_line2": "2 30045  99.1779  30.9376 0094143  89.8391 341.2192 14.21668731968063"
      },
      "geometry": {
        "type": "Point",
        "coordinates": [
          -152.4335222309306,
          -28.36900532694085
        ]
      }
    },
    {
      "type": "Feature",
      "properties": {
        "norad_id": 30047,
        "name": "FENGYUN 1C DEB",
        "group": "fengyun-1c-debris",
        "lat": -73.29078489033643,
        "lon": -61.320676490589726,
        "alt_km": 849.9012796239977,
        "timestamp": "2025-12-22T14:45:57.675981+00:00",
        "meta_object_name": "FENGYUN 1C DEB",
        "meta_object_id": "1999-025NY",
        "meta_epoch": "2025-12-21T05:40:31.752768",
        "meta_mean_motion": 13.9436881,
        "meta_eccentricity": 0.0125709,
        "meta_inclination": 99.9193,
        "meta_ra_of_asc_node": 152.8551,
        "meta_arg_of_pericenter": 300.1263,
        "meta_mean_anomaly": 239.8502,
        "meta_ephemeris_type": 0,
        "meta_classification_type": "U",
        "meta_norad_cat_id": 30047,
        "meta_element_set_no": 999,
        "meta_rev_at_epoch": 96034,
        "meta_bstar": 0.00047266,
        "meta_mean_motion_dot": 6.2e-06,
        "meta_mean_motion_ddot": 0,
        "tle_line1": "1 30047U 99025NY  25355.23647862  .00000620  00000+0  47266-3 0  9992",
        "tle_line2": "2 30047  99.9193 152.8551 0125709 300.1263 239.8502 13.94368810960346"
      },
      "geometry": {
        "type": "Point",
        "coordinates": [
          -61.320676490589726,
          -73.29078489033643
        ]
      }
    },
    {
      "type": "Feature",
      "properties": {
        "norad_id": 30048,
        "name": "FENGYUN 1C DEB",
        "group": "fengyun-1c-debris",
        "lat": 80.27861918931609,
        "lon": 104.52609212856169,
        "alt_km": 1031.0589285723936,
        "timestamp": "2025-12-22T14:45:57.675991+00:00",
        "meta_object_name": "FENGYUN 1C DEB",
        "meta_object_id": "1999-025NZ",
        "meta_epoch": "2025-12-22T02:51:47.997792",
        "meta_mean_motion": 13.79898182,
        "meta_eccentricity": 0.01863546,
        "meta_inclination": 98.666,
        "meta_ra_of_asc_node": 221.1723,
        "meta_arg_of_pericenter": 219.4842,
        "meta_mean_anomaly": 294.3729,
        "meta_ephemeris_type": 0,
        "meta_classification_type": "U",
        "meta_norad_cat_id": 30048,
        "meta_element_set_no": 999,
        "meta_rev_at_epoch": 95255,
        "meta_bstar": 0.00020074566,
        "meta_mean_motion_dot": 1.97e-06,
        "meta_mean_motion_ddot": 0,
        "tle_line1": "1 30048U 99025NZ  25356.11930553  .00000197  00000+0  20075-3 0  9991",
        "tle_line2": "2 30048  98.6660 221.1723 0186354 219.4842 294.3729 13.79898182952555"
      },
      "geometry": {
        "type": "Point",
        "coordinates": [
          104.52609212856169,
          80.27861918931609
        ]
      }
    }
  ]
}